[{"OBJECT_NAME":"FUNCUBE-1 (AO-73)","OBJECT_ID":"2013-066AE","EPOCH":"2026-03-09T21:45:20.354112","MEAN_MOTION":15.07917828,"ECCENTRICITY":0.00373117,"INCLINATION":97.8195,"RA_OF_ASC_NODE":38.4486,"ARG_OF_PERICENTER":178.1154,"MEAN_ANOMALY":182.0221,"EPHEMERIS_TYPE":0,"CLASSIFICATION_TYPE":"U","NORAD_CAT_ID":39444,"ELEMENT_SET_NO":999,"REV_AT_EPOCH":66469,"BSTAR":0.00061714882,"MEAN_MOTION_DOT":9.564e-5,"MEAN_MOTION_DDOT":0},{"OBJECT_NAME":"STARLINK-3580","OBJECT_ID":"2022-017P","EPOCH":"2026-03-09T23:28:02.611200","MEAN_MOTION":15.08829689,"ECCENTRICITY":0.000107,"INCLINATION":53.2193,"RA_OF_ASC_NODE":337.7907,"ARG_OF_PERICENTER":90.8345,"MEAN_ANOMALY":269.277,"EPHEMERIS_TYPE":0,"CLASSIFICATION_TYPE":"U","NORAD_CAT_ID":51781,"ELEMENT_SET_NO":999,"REV_AT_EPOCH":22246,"BSTAR":4.2186123e-5,"MEAN_MOTION_DOT":3.84e-6,"MEAN_MOTION_DDOT":0}]
