FUNCUBE-1 (AO-73)       
1 39444U 13066AE  26068.90648558  .00009564  00000+0  61715-3 0  9993
2 39444  97.8195  38.4486 0037312 178.1154 182.0221 15.07917828664696
STARLINK-3580           
1 51781U 22017P   26068.97780799  .00000384  00000+0  42186-4 0  9991
2 51781  53.2193 337.7907 0001070  90.8345 269.2770 15.08829689222465
